[{"OBJECT_NAME":"IRIDE-MS2-HEO-1","OBJECT_ID":"2025-009CS","EPOCH":"2026-03-09T21:58:17.099616","MEAN_MOTION":14.93995138,"ECCENTRICITY":0.0002115,"INCLINATION":97.7093,"RA_OF_ASC_NODE":149.0685,"ARG_OF_PERICENTER":20.3987,"MEAN_ANOMALY":339.7317,"EPHEMERIS_TYPE":0,"CLASSIFICATION_TYPE":"U","NORAD_CAT_ID":62697,"ELEMENT_SET_NO":999,"REV_AT_EPOCH":6251,"BSTAR":0.00028163235,"MEAN_MOTION_DOT":2.946e-5,"MEAN_MOTION_DDOT":0},{"OBJECT_NAME":"CONNECTA IOT-5","OBJECT_ID":"2025-009CY","EPOCH":"2026-03-09T17:09:47.996640","MEAN_MOTION":14.94496249,"ECCENTRICITY":0.00032838,"INCLINATION":97.7071,"RA_OF_ASC_NODE":149.1668,"ARG_OF_PERICENTER":55.944,"MEAN_ANOMALY":304.2092,"EPHEMERIS_TYPE":0,"CLASSIFICATION_TYPE":"U","NORAD_CAT_ID":62703,"ELEMENT_SET_NO":999,"REV_AT_EPOCH":6251,"BSTAR":0.00017598719,"MEAN_MOTION_DOT":1.843e-5,"MEAN_MOTION_DDOT":0}]
